{
"type": "FeatureCollection",
"name": "datatanah1",
"crs": { "type": "name", "properties": { "name": "urn:ogc:def:crs:OGC:1.3:CRS84" } },
"bbox": [ 102.997134532662, -0.453576827005198, 103.170575602382, -0.307417317783187 ],                                            
"features": [
{ "type": "Feature", "properties": { "id": 1, "nama": "tembilahan", "luas": 200 }, "bbox": [ 103.128679380870224, -0.340438970206481, 103.170575602382286, -0.307417317783187 ], "geometry": { "type": "MultiPolygon", "coordinates": [ [ [ [ 103.128679380870224, -0.339200658240607 ], [ 103.160669106655291, -0.307417317783187 ], [ 103.170575602382286, -0.31897489613134 ], [ 103.155715858791794, -0.331151630462429 ], [ 103.134045399389009, -0.340438970206481 ], [ 103.128679380870224, -0.339200658240607 ] ] ] ] } },
{ "type": "Feature", "properties": { "id": 2, "nama": "sungai salak", "luas": 50 }, "bbox": [ 102.997134532662159, -0.453576827005198, 103.002526349346894, -0.44846879014597 ], "geometry": { "type": "MultiPolygon", "coordinates": [ [ [ [ 102.997186128994059, -0.452802882026527 ], [ 102.997134532662159, -0.451358184733008 ], [ 103.001133248385287, -0.44846879014597 ], [ 103.002526349346894, -0.450893817745806 ], [ 102.998966202445004, -0.453576827005198 ], [ 102.997186128994059, -0.452802882026527 ] ] ] ] } }
]
}
